{
  "type": "FeatureCollection",
  "features": [
    {
      "type": "Feature",
      "properties": {
        "norad_id": 51444,
        "name": "CSG-2",
        "group": "resource",
        "lat": -19.780608795684554,
        "lon": -23.583154066710108,
        "alt_km": 628.1165081473509,
        "timestamp": "2025-12-03T19:33:06.637473+00:00",
        "meta_object_name": "CSG-2",
        "meta_object_id": "2022-008A",
        "meta_epoch": "2025-12-03T12:10:19.156224",
        "meta_mean_motion": 14.82148519,
        "meta_eccentricity": 0.0001484,
        "meta_inclination": 97.8806,
        "meta_ra_of_asc_node": 158.9694,
        "meta_arg_of_pericenter": 89.9683,
        "meta_mean_anomaly": 270.17,
        "meta_ephemeris_type": 0,
        "meta_classification_type": "U",
        "meta_norad_cat_id": 51444,
        "meta_element_set_no": 999,
        "meta_rev_at_epoch": 20760,
        "meta_bstar": 0.00013594,
        "meta_mean_motion_dot": 1.03e-05,
        "meta_mean_motion_ddot": 0,
        "tle_line1": "1 51444U 22008A   25337.50716616  .00001030  00000+0  13594-3 0  9990",
        "tle_line2": "2 51444  97.8806 158.9694 0001484  89.9683 270.1700 14.82148519207605"
      },
      "geometry": {
        "type": "Point",
        "coordinates": [
          -23.583154066710108,
          -19.780608795684554
        ]
      }
    },
    {
      "type": "Feature",
      "properties": {
        "norad_id": 52912,
        "name": "GAOFEN-12 03",
        "group": "resource",
        "lat": -18.629948987659215,
        "lon": 42.70418406746125,
        "alt_km": 636.671253786275,
        "timestamp": "2025-12-03T19:33:06.637483+00:00",
        "meta_object_name": "GAOFEN-12 03",
        "meta_object_id": "2022-069A",
        "meta_epoch": "2025-12-03T13:47:15.159264",
        "meta_mean_motion": 14.7957274,
        "meta_eccentricity": 0.0002311,
        "meta_inclination": 97.8487,
        "meta_ra_of_asc_node": 225.135,
        "meta_arg_of_pericenter": 75.3685,
        "meta_mean_anomaly": 284.7783,
        "meta_ephemeris_type": 0,
        "meta_classification_type": "U",
        "meta_norad_cat_id": 52912,
        "meta_element_set_no": 999,
        "meta_rev_at_epoch": 18568,
        "meta_bstar": 0.00024291,
        "meta_mean_motion_dot": 1.768e-05,
        "meta_mean_motion_ddot": 0,
        "tle_line1": "1 52912U 22069A   25337.57448101  .00001768  00000+0  24291-3 0  9990",
        "tle_line2": "2 52912  97.8487 225.1350 0002311  75.3685 284.7783 14.79572740185686"
      },
      "geometry": {
        "type": "Point",
        "coordinates": [
          42.70418406746125,
          -18.629948987659215
        ]
      }
    },
    {
      "type": "Feature",
      "properties": {
        "norad_id": 54754,
        "name": "SWOT",
        "group": "resource",
        "lat": -18.335585348479636,
        "lon": 123.21631023080421,
        "alt_km": 897.8924212017737,
        "timestamp": "2025-12-03T19:33:06.637493+00:00",
        "meta_object_name": "SWOT",
        "meta_object_id": "2022-173A",
        "meta_epoch": "2025-12-03T11:44:47.044032",
        "meta_mean_motion": 14.00172442,
        "meta_eccentricity": 3.1e-05,
        "meta_inclination": 77.6099,
        "meta_ra_of_asc_node": 299.4775,
        "meta_arg_of_pericenter": 137.8148,
        "meta_mean_anomaly": 222.3028,
        "meta_ephemeris_type": 0,
        "meta_classification_type": "U",
        "meta_norad_cat_id": 54754,
        "meta_element_set_no": 999,
        "meta_rev_at_epoch": 15176,
        "meta_bstar": 6.6311e-05,
        "meta_mean_motion_dot": 9.5e-07,
        "meta_mean_motion_ddot": 0,
        "tle_line1": "1 54754U 22173A   25337.48943338  .00000095  00000+0  66311-4 0  9996",
        "tle_line2": "2 54754  77.6099 299.4775 0000310 137.8148 222.3028 14.00172442151768"
      },
      "geometry": {
        "type": "Point",
        "coordinates": [
          123.21631023080421,
          -18.335585348479636
        ]
      }
    },
    {
      "type": "Feature",
      "properties": {
        "norad_id": 57654,
        "name": "GAOFEN-12 04",
        "group": "resource",
        "lat": 5.241358425539105,
        "lon": -107.02322639116343,
        "alt_km": 632.2887323866316,
        "timestamp": "2025-12-03T19:33:06.637503+00:00",
        "meta_object_name": "GAOFEN-12 04",
        "meta_object_id": "2023-123A",
        "meta_epoch": "2025-12-03T13:02:09.773088",
        "meta_mean_motion": 14.79654662,
        "meta_eccentricity": 0.000145,
        "meta_inclination": 97.9113,
        "meta_ra_of_asc_node": 253.4404,
        "meta_arg_of_pericenter": 71.0861,
        "meta_mean_anomaly": 289.0508,
        "meta_ephemeris_type": 0,
        "meta_classification_type": "U",
        "meta_norad_cat_id": 57654,
        "meta_element_set_no": 999,
        "meta_rev_at_epoch": 12369,
        "meta_bstar": 0.00028708,
        "meta_mean_motion_dot": 2.102e-05,
        "meta_mean_motion_ddot": 0,
        "tle_line1": "1 57654U 23123A   25337.54316867  .00002102  00000+0  28708-3 0  9990",
        "tle_line2": "2 57654  97.9113 253.4404 0001450  71.0861 289.0508 14.79654662123697"
      },
      "geometry": {
        "type": "Point",
        "coordinates": [
          -107.02322639116343,
          5.241358425539105
        ]
      }
    },
    {
      "type": "Feature",
      "properties": {
        "norad_id": 59065,
        "name": "PARS 1",
        "group": "resource",
        "lat": -59.98283188027649,
        "lon": 115.44914123431172,
        "alt_km": 458.1768430862303,
        "timestamp": "2025-12-03T19:33:06.637513+00:00",
        "meta_object_name": "PARS 1",
        "meta_object_id": "2024-039Q",
        "meta_epoch": "2025-12-03T12:16:32.452608",
        "meta_mean_motion": 15.40653798,
        "meta_eccentricity": 0.0012656,
        "meta_inclination": 97.4618,
        "meta_ra_of_asc_node": 308.2519,
        "meta_arg_of_pericenter": 99.4036,
        "meta_mean_anomaly": 260.8641,
        "meta_ephemeris_type": 0,
        "meta_classification_type": "U",
        "meta_norad_cat_id": 59065,
        "meta_element_set_no": 999,
        "meta_rev_at_epoch": 9846,
        "meta_bstar": 0.00036444,
        "meta_mean_motion_dot": 0.00014821,
        "meta_mean_motion_ddot": 0,
        "tle_line1": "1 59065U 24039Q   25337.51148672  .00014821  00000+0  36444-3 0  9996",
        "tle_line2": "2 59065  97.4618 308.2519 0012656  99.4036 260.8641 15.40653798 98463"
      },
      "geometry": {
        "type": "Point",
        "coordinates": [
          115.44914123431172,
          -59.98283188027649
        ]
      }
    },
    {
      "type": "Feature",
      "properties": {
        "norad_id": 59371,
        "name": "RESURS-P 4",
        "group": "resource",
        "lat": -54.441697747027035,
        "lon": -65.40830439883888,
        "alt_km": 477.479366038634,
        "timestamp": "2025-12-03T19:33:06.637523+00:00",
        "meta_object_name": "RESURS-P 4",
        "meta_object_id": "2024-061A",
        "meta_epoch": "2025-12-03T13:31:17.201856",
        "meta_mean_motion": 15.31970087,
        "meta_eccentricity": 0.0002153,
        "meta_inclination": 97.2529,
        "meta_ra_of_asc_node": 284.0828,
        "meta_arg_of_pericenter": 54.8453,
        "meta_mean_anomaly": 305.299,
        "meta_ephemeris_type": 0,
        "meta_classification_type": "U",
        "meta_norad_cat_id": 59371,
        "meta_element_set_no": 999,
        "meta_rev_at_epoch": 9380,
        "meta_bstar": 0.00020443,
        "meta_mean_motion_dot": 6.234e-05,
        "meta_mean_motion_ddot": 0,
        "tle_line1": "1 59371U 24061A   25337.56339354  .00006234  00000+0  20443-3 0  9996",
        "tle_line2": "2 59371  97.2529 284.0828 0002153  54.8453 305.2990 15.31970087 93802"
      },
      "geometry": {
        "type": "Point",
        "coordinates": [
          -65.40830439883888,
          -54.441697747027035
        ]
      }
    },
    {
      "type": "Feature",
      "properties": {
        "norad_id": 59625,
        "name": "LEGION 1",
        "group": "resource",
        "lat": -48.62654836058267,
        "lon": 61.1592109321067,
        "alt_km": 521.4224718796368,
        "timestamp": "2025-12-03T19:33:06.637533+00:00",
        "meta_object_name": "LEGION 1",
        "meta_object_id": "2024-081A",
        "meta_epoch": "2025-12-03T11:50:57.795072",
        "meta_mean_motion": 15.1633009,
        "meta_eccentricity": 0.0004694,
        "meta_inclination": 97.523,
        "meta_ra_of_asc_node": 52.2119,
        "meta_arg_of_pericenter": 353.9571,
        "meta_mean_anomaly": 6.1604,
        "meta_ephemeris_type": 0,
        "meta_classification_type": "U",
        "meta_norad_cat_id": 59625,
        "meta_element_set_no": 999,
        "meta_rev_at_epoch": 8787,
        "meta_bstar": 0.00039103,
        "meta_mean_motion_dot": 7.518e-05,
        "meta_mean_motion_ddot": 0,
        "tle_line1": "1 59625U 24081A   25337.49372448  .00007518  00000+0  39103-3 0  9992",
        "tle_line2": "2 59625  97.5230  52.2119 0004694 353.9571   6.1604 15.16330090 87876"
      },
      "geometry": {
        "type": "Point",
        "coordinates": [
          61.1592109321067,
          -48.62654836058267
        ]
      }
    }
  ]
}